{
  "type": "FeatureCollection",
  "generator": "overpass-turbo",
  "copyright": "The data included in this document is from www.openstreetmap.org. The data is made available under ODbL.",
  "timestamp": "2026-08-17T14:37:00Z",
  "features": [
    {
      "type": "Feature",
      "properties": {
        "@id": "way/1375442214",
        "name": "Maracay",
        "place": "city"
      },
      "geometry": {
        "type": "Polygon",
        "coordinates": [
          [
            [
              -67.6680918,
              10.2553992
            ],
            [
              -67.6596068,
              10.2390593
            ],
            [
              -67.6551951,
              10.2335778
            ],
            [
              -67.6442298,
              10.2291198
            ],
            [
              -67.6349429,
              10.2251525
            ],
            [
              -67.6259977,
              10.218885
            ],
            [
              -67.6163994,
              10.2184795
            ],
            [
              -67.611404,
              10.216334
            ],
            [
              -67.6012105,
              10.2139413
            ],
            [
              -67.5980004,
              10.211272
            ],
            [
              -67.5993394,
              10.2046663
            ],
            [
              -67.5984076,
              10.2035503
            ],
            [
              -67.5915994,
              10.2042059
            ],
            [
              -67.5914857,
              10.2042169
            ],
            [
              -67.5913807,
              10.204227
            ],
            [
              -67.5876117,
              10.2046537
            ],
            [
              -67.5825844,
              10.205189
            ],
            [
              -67.5801431,
              10.2055764
            ],
            [
              -67.5787891,
              10.2070431
            ],
            [
              -67.5771746,
              10.2108616
            ],
            [
              -67.5761109,
              10.2105824
            ],
            [
              -67.5755702,
              10.2124408
            ],
            [
              -67.5752183,
              10.2133446
            ],
            [
              -67.5737512,
              10.2135186
            ],
            [
              -67.5732388,
              10.2140261
            ],
            [
              -67.572343,
              10.2151861
            ],
            [
              -67.5723258,
              10.2166221
            ],
            [
              -67.5719825,
              10.2170275
            ],
            [
              -67.5705226,
              10.218116
            ],
            [
              -67.5682702,
              10.2198366
            ],
            [
              -67.5673451,
              10.2208964
            ],
            [
              -67.5626913,
              10.2188845
            ],
            [
              -67.561955,
              10.2214707
            ],
            [
              -67.5596631,
              10.2236754
            ],
            [
              -67.559368,
              10.2246658
            ],
            [
              -67.5583544,
              10.2264246
            ],
            [
              -67.5566348,
              10.2277932
            ],
            [
              -67.5558758,
              10.2292318
            ],
            [
              -67.5556558,
              10.2320614
            ],
            [
              -67.5552133,
              10.2357251
            ],
            [
              -67.5544542,
              10.2389215
            ],
            [
              -67.5534132,
              10.2387727
            ],
            [
              -67.5509042,
              10.2377633
            ],
            [
              -67.5480374,
              10.2368485
            ],
            [
              -67.5472336,
              10.2369232
            ],
            [
              -67.5458403,
              10.2402381
            ],
            [
              -67.5643049,
              10.2551134
            ],
            [
              -67.5612441,
              10.2663109
            ],
            [
              -67.5617248,
              10.273215
            ],
            [
              -67.5564269,
              10.2806843
            ],
            [
              -67.5545043,
              10.2888095
            ],
            [
              -67.5567702,
              10.296728
            ],
            [
              -67.5482215,
              10.3033918
            ],
            [
              -67.5508822,
              10.3074621
            ],
            [
              -67.5504188,
              10.312669
            ],
            [
              -67.5486678,
              10.3173303
            ],
            [
              -67.5445994,
              10.3235944
            ],
            [
              -67.5401362,
              10.327732
            ],
            [
              -67.5468181,
              10.3305691
            ],
            [
              -67.5503715,
              10.3271071
            ],
            [
              -67.5566122,
              10.3262627
            ],
            [
              -67.5576725,
              10.3287628
            ],
            [
              -67.5621923,
              10.3299443
            ],
            [
              -67.5641492,
              10.3212351
            ],
            [
              -67.5688184,
              10.3185498
            ],
            [
              -67.5694192,
              10.314942
            ],
            [
              -67.5669362,
              10.3111519
            ],
            [
              -67.562776,
              10.3032388
            ],
            [
              -67.5657457,
              10.3004014
            ],
            [
              -67.5667032,
              10.2941621
            ],
            [
              -67.5735841,
              10.2929629
            ],
            [
              -67.578909,
              10.2921485
            ],
            [
              -67.5822657,
              10.2891005
            ],
            [
              -67.5836563,
              10.2836449
            ],
            [
              -67.5892351,
              10.2782664
            ],
            [
              -67.5944536,
              10.2740775
            ],
            [
              -67.603828,
              10.274618
            ],
            [
              -67.6081409,
              10.2787731
            ],
            [
              -67.6149387,
              10.2776921
            ],
            [
              -67.6210897,
              10.2738619
            ],
            [
              -67.6321368,
              10.2742489
            ],
            [
              -67.6324011,
              10.2699248
            ],
            [
              -67.6393935,
              10.2720531
            ],
            [
              -67.6432943,
              10.2717024
            ],
            [
              -67.6500502,
              10.2700768
            ],
            [
              -67.6549769,
              10.2716308
            ],
            [
              -67.6615,
              10.2728132
            ],
            [
              -67.6668387,
              10.2635579
            ],
            [
              -67.6690703,
              10.2608046
            ],
            [
              -67.6680918,
              10.2553992
            ]
          ]
        ]
      },
      "id": "way/1375442214"
    }
  ]
}