{
  "type": "FeatureCollection",
  "generator": "overpass-turbo",
  "copyright": "The data included in this document is from www.openstreetmap.org. The data is made available under ODbL.",
  "timestamp": "2026-08-17T14:24:35Z",
  "features": [
    {
      "type": "Feature",
      "properties": {
        "@id": "way/1429788219",
        "name": "Valencia",
        "place": "city"
      },
      "geometry": {
        "type": "Polygon",
        "coordinates": [
          [
            [
              -68.0698823,
              10.2231682
            ],
            [
              -68.0720945,
              10.2185654
            ],
            [
              -68.0686605,
              10.2094925
            ],
            [
              -68.0693552,
              10.1983314
            ],
            [
              -68.0678391,
              10.1898279
            ],
            [
              -68.0647491,
              10.1784319
            ],
            [
              -68.0606541,
              10.1715655
            ],
            [
              -68.0524735,
              10.17022
            ],
            [
              -68.0486211,
              10.17386
            ],
            [
              -68.0433582,
              10.1769798
            ],
            [
              -68.038676,
              10.1761736
            ],
            [
              -68.0335568,
              10.1796862
            ],
            [
              -68.0278262,
              10.1857657
            ],
            [
              -68.0215064,
              10.1851034
            ],
            [
              -68.0297428,
              10.174118
            ],
            [
              -68.0352115,
              10.1720056
            ],
            [
              -68.0388609,
              10.1660645
            ],
            [
              -68.0409795,
              10.1633139
            ],
            [
              -68.0432421,
              10.1597384
            ],
            [
              -68.0473637,
              10.1561141
            ],
            [
              -68.0554713,
              10.1538249
            ],
            [
              -68.0652763,
              10.1497661
            ],
            [
              -68.0709337,
              10.1486442
            ],
            [
              -68.0778871,
              10.1465312
            ],
            [
              -68.0778184,
              10.1433221
            ],
            [
              -68.0761979,
              10.1404748
            ],
            [
              -68.0692269,
              10.1372073
            ],
            [
              -68.0600406,
              10.1339926
            ],
            [
              -68.0567071,
              10.131066
            ],
            [
              -68.0578048,
              10.1296146
            ],
            [
              -68.0590789,
              10.1277655
            ],
            [
              -68.0574162,
              10.126207
            ],
            [
              -68.0546975,
              10.122399
            ],
            [
              -68.0517747,
              10.1180835
            ],
            [
              -68.053783,
              10.1145428
            ],
            [
              -68.0526792,
              10.1117754
            ],
            [
              -68.040287,
              10.1103999
            ],
            [
              -68.0162803,
              10.1136371
            ],
            [
              -68.0144228,
              10.1127435
            ],
            [
              -68.0098314,
              10.112002
            ],
            [
              -68.0074547,
              10.1105924
            ],
            [
              -67.9938428,
              10.1124617
            ],
            [
              -67.9875577,
              10.1206845
            ],
            [
              -67.9848401,
              10.1299494
            ],
            [
              -67.9808378,
              10.1305496
            ],
            [
              -67.97657,
              10.1281149
            ],
            [
              -67.9729307,
              10.1263536
            ],
            [
              -67.9659747,
              10.1298666
            ],
            [
              -67.9628519,
              10.1237082
            ],
            [
              -67.9613479,
              10.1242408
            ],
            [
              -67.9583272,
              10.1252135
            ],
            [
              -67.9541767,
              10.1297325
            ],
            [
              -67.9504743,
              10.1342087
            ],
            [
              -67.9511018,
              10.1368327
            ],
            [
              -67.9516074,
              10.1393374
            ],
            [
              -67.9464305,
              10.1452563
            ],
            [
              -67.9462055,
              10.1461116
            ],
            [
              -67.9451012,
              10.1486888
            ],
            [
              -67.9442181,
              10.1499673
            ],
            [
              -67.940784,
              10.149571
            ],
            [
              -67.9255439,
              10.1486463
            ],
            [
              -67.9223433,
              10.1472413
            ],
            [
              -67.9148852,
              10.1474067
            ],
            [
              -67.9108491,
              10.1483864
            ],
            [
              -67.9115238,
              10.1519099
            ],
            [
              -67.9128818,
              10.1525524
            ],
            [
              -67.9153101,
              10.152142
            ],
            [
              -67.9166436,
              10.1522802
            ],
            [
              -67.9176736,
              10.153793
            ],
            [
              -67.9181725,
              10.15456
            ],
            [
              -67.9190616,
              10.1553547
            ],
            [
              -67.9203692,
              10.1562418
            ],
            [
              -67.9217613,
              10.156651
            ],
            [
              -67.9238621,
              10.1571566
            ],
            [
              -67.9260622,
              10.1577454
            ],
            [
              -67.9278378,
              10.1584305
            ],
            [
              -67.9289952,
              10.1595182
            ],
            [
              -67.9295982,
              10.1606561
            ],
            [
              -67.9291709,
              10.1622059
            ],
            [
              -67.9290006,
              10.1635458
            ],
            [
              -67.9291736,
              10.1641609
            ],
            [
              -67.9305287,
              10.1661542
            ],
            [
              -67.9314601,
              10.166966
            ],
            [
              -67.9332894,
              10.1669766
            ],
            [
              -67.9346305,
              10.1669634
            ],
            [
              -67.935631,
              10.1672696
            ],
            [
              -67.9364625,
              10.1678663
            ],
            [
              -67.9374146,
              10.1688088
            ],
            [
              -67.9387826,
              10.1697566
            ],
            [
              -67.9400346,
              10.1701808
            ],
            [
              -67.9413284,
              10.1709859
            ],
            [
              -67.9417745,
              10.1718833
            ],
            [
              -67.9428216,
              10.1738264
            ],
            [
              -67.9435234,
              10.1758274
            ],
            [
              -67.9456651,
              10.1783024
            ],
            [
              -67.946674,
              10.179136
            ],
            [
              -67.9497246,
              10.1821688
            ],
            [
              -67.9500675,
              10.182798
            ],
            [
              -67.9506849,
              10.1869878
            ],
            [
              -67.9644339,
              10.1847505
            ],
            [
              -67.9678583,
              10.1841658
            ],
            [
              -67.9737958,
              10.1831633
            ],
            [
              -67.9793954,
              10.1822688
            ],
            [
              -67.9836758,
              10.1806402
            ],
            [
              -67.9837928,
              10.1823259
            ],
            [
              -67.9839473,
              10.1874937
            ],
            [
              -67.9866888,
              10.1883084
            ],
            [
              -67.9887218,
              10.1944845
            ],
            [
              -67.989923,
              10.1992377
            ],
            [
              -67.9867884,
              10.2045723
            ],
            [
              -67.9844882,
              10.2076844
            ],
            [
              -67.9848043,
              10.2162427
            ],
            [
              -67.9857469,
              10.2233816
            ],
            [
              -67.9908127,
              10.2245805
            ],
            [
              -67.9870628,
              10.229159
            ],
            [
              -67.9866926,
              10.235134
            ],
            [
              -67.9886498,
              10.2359001
            ],
            [
              -67.9869656,
              10.2404336
            ],
            [
              -67.9891148,
              10.2448798
            ],
            [
              -67.9889884,
              10.2522259
            ],
            [
              -67.9908341,
              10.2532807
            ],
            [
              -67.9945099,
              10.2604734
            ],
            [
              -67.9928796,
              10.2692501
            ],
            [
              -67.9933256,
              10.2712039
            ],
            [
              -67.998707,
              10.2692566
            ],
            [
              -68.0068554,
              10.2676651
            ],
            [
              -68.012428,
              10.26853
            ],
            [
              -68.0226021,
              10.2777934
            ],
            [
              -68.0273708,
              10.277228
            ],
            [
              -68.0319486,
              10.2711122
            ],
            [
              -68.0365294,
              10.2624965
            ],
            [
              -68.0330727,
              10.2559546
            ],
            [
              -68.0316085,
              10.2533569
            ],
            [
              -68.0317378,
              10.2491262
            ],
            [
              -68.0293668,
              10.2455431
            ],
            [
              -68.0300927,
              10.2428979
            ],
            [
              -68.0272372,
              10.2344246
            ],
            [
              -68.0286651,
              10.2320505
            ],
            [
              -68.0198386,
              10.2214198
            ],
            [
              -68.0236099,
              10.2209382
            ],
            [
              -68.0293771,
              10.2190858
            ],
            [
              -68.0325673,
              10.2200449
            ],
            [
              -68.0362001,
              10.2167894
            ],
            [
              -68.0389635,
              10.2145675
            ],
            [
              -68.0373116,
              10.2096374
            ],
            [
              -68.0398491,
              10.2062867
            ],
            [
              -68.0410507,
              10.2040378
            ],
            [
              -68.0400123,
              10.1947999
            ],
            [
              -68.0434345,
              10.1946414
            ],
            [
              -68.0455367,
              10.1923915
            ],
            [
              -68.048978,
              10.1914544
            ],
            [
              -68.0470925,
              10.1929595
            ],
            [
              -68.0472619,
              10.1955673
            ],
            [
              -68.0496064,
              10.1963532
            ],
            [
              -68.0502448,
              10.1958936
            ],
            [
              -68.0533468,
              10.1927365
            ],
            [
              -68.0547178,
              10.1945068
            ],
            [
              -68.054298,
              10.1963212
            ],
            [
              -68.0528337,
              10.1970463
            ],
            [
              -68.0514186,
              10.1989221
            ],
            [
              -68.0532041,
              10.2006288
            ],
            [
              -68.056363,
              10.2021361
            ],
            [
              -68.0523378,
              10.2039918
            ],
            [
              -68.052062,
              10.2057786
            ],
            [
              -68.0486726,
              10.2086625
            ],
            [
              -68.0483683,
              10.2109167
            ],
            [
              -68.0483714,
              10.2142886
            ],
            [
              -68.0511402,
              10.215826
            ],
            [
              -68.0534549,
              10.2140634
            ],
            [
              -68.0625814,
              10.2128868
            ],
            [
              -68.0631601,
              10.2149063
            ],
            [
              -68.0633888,
              10.2228029
            ],
            [
              -68.0698823,
              10.2231682
            ]
          ]
        ]
      },
      "id": "way/1429788219"
    }
  ]
}